{
  "norad_id": 62028,
  "name": "GSAT-N2 (GSAT-20)",
  "history": [
    {
      "epoch": "2026-03-28T21:57:16.846848Z",
      "apogee_km": 35788.89897845988,
      "perigee_km": 35784.92787401074,
      "latitude_deg": 0.006210111118789247,
      "longitude_deg": 67.96315011092221,
      "height_km": 35785.12719984489,
      "semi_major_axis_km": 42165.05042623531,
      "eccentricity": 4.709e-05,
      "inclination_deg": 0.0186,
      "raan_deg": 234.6859,
      "arg_perigee_deg": 298.6346,
      "mean_anomaly_deg": 50.2636,
      "mean_motion_rev_day": 1.00270649
    },
    {
      "epoch": "2026-03-29T04:08:38.618880Z",
      "apogee_km": 35788.90028590821,
      "perigee_km": 35784.89460763577,
      "latitude_deg": 0.032168867628771976,
      "longitude_deg": 67.96098148833588,
      "height_km": 35788.057518881185,
      "semi_major_axis_km": 42165.03444677199,
      "eccentricity": 4.75e-05,
      "inclination_deg": 0.018,
      "raan_deg": 233.258,
      "arg_perigee_deg": 297.04,
      "mean_anomaly_deg": 146.3801,
      "mean_motion_rev_day": 1.00270706
    },
    {
      "epoch": "2026-03-30T03:02:50.520768Z",
      "apogee_km": 35788.90806799291,
      "perigee_km": 35784.74216973557,
      "latitude_deg": 0.03380925757660211,
      "longitude_deg": 67.95739350743037,
      "height_km": 35787.9181994319,
      "semi_major_axis_km": 42164.96211886424,
      "eccentricity": 4.94e-05,
      "inclination_deg": 0.0149,
      "raan_deg": 228.6656,
      "arg_perigee_deg": 292.0857,
      "mean_anomaly_deg": 140.4141,
      "mean_motion_rev_day": 1.00270964
    },
    {
      "epoch": "2026-03-30T04:55:38.593920Z",
      "apogee_km": 35788.91918336422,
      "perigee_km": 35784.722083481385,
      "latitude_deg": 0.029503807491130848,
      "longitude_deg": 67.9543389506766,
      "height_km": 35788.378165410206,
      "semi_major_axis_km": 42164.957633422804,
      "eccentricity": 4.977e-05,
      "inclination_deg": 0.0147,
      "raan_deg": 228.5625,
      "arg_perigee_deg": 291.1186,
      "mean_anomaly_deg": 169.7615,
      "mean_motion_rev_day": 1.0027098
    },
    {
      "epoch": "2026-03-30T11:36:11.351808Z",
      "apogee_km": 35788.90138648853,
      "perigee_km": 35784.700072093176,
      "latitude_deg": -0.022098390681562153,
      "longitude_deg": 67.94613822374062,
      "height_km": 35786.17288910836,
      "semi_major_axis_km": 42164.937729290854,
      "eccentricity": 4.982e-05,
      "inclination_deg": 0.0137,
      "raan_deg": 226.538,
      "arg_perigee_deg": 289.8081,
      "mean_anomaly_deg": 273.5063,
      "mean_motion_rev_day": 1.00271051
    },
    {
      "epoch": "2026-03-30T20:49:38.612928Z",
      "apogee_km": 35788.948413630496,
      "perigee_km": 35784.59024891209,
      "latitude_deg": -0.00025986754330178865,
      "longitude_deg": 67.9551729543445,
      "height_km": 35785.01320722441,
      "semi_major_axis_km": 42164.9063312713,
      "eccentricity": 5.168e-05,
      "inclination_deg": 0.0128,
      "raan_deg": 224.55,
      "arg_perigee_deg": 288.6176,
      "mean_anomaly_deg": 55.4266,
      "mean_motion_rev_day": 1.00271163
    },
    {
      "epoch": "2026-03-31T20:07:08.311296Z",
      "apogee_km": 35789.07650231988,
      "perigee_km": 35784.32030888613,
      "latitude_deg": -0.005768533003780202,
      "longitude_deg": 67.95149299847574,
      "height_km": 35784.79293572256,
      "semi_major_axis_km": 42164.835405603,
      "eccentricity": 5.64e-05,
      "inclination_deg": 0.0101,
      "raan_deg": 220.2058,
      "arg_perigee_deg": 284.3938,
      "mean_anomaly_deg": 54.3236,
      "mean_motion_rev_day": 1.00271416
    },
    {
      "epoch": "2026-04-01T18:07:38.643168Z",
      "apogee_km": 35789.255735670115,
      "perigee_km": 35784.010438271296,
      "latitude_deg": -0.023610571366516144,
      "longitude_deg": 67.94663204002863,
      "height_km": 35783.90268836583,
      "semi_major_axis_km": 42164.77008697071,
      "eccentricity": 6.22e-05,
      "inclination_deg": 0.0132,
      "raan_deg": 211.3312,
      "arg_perigee_deg": 286.4616,
      "mean_anomaly_deg": 32.1601,
      "mean_motion_rev_day": 1.00271649
    },
    {
      "epoch": "2026-04-02T20:02:11.383872Z",
      "apogee_km": 35789.52521880461,
      "perigee_km": 35783.596862260114,
      "latitude_deg": -0.006023892907618008,
      "longitude_deg": 67.94747994335499,
      "height_km": 35784.92079738774,
      "semi_major_axis_km": 42164.69804053236,
      "eccentricity": 7.03e-05,
      "inclination_deg": 0.01,
      "raan_deg": 212.8977,
      "arg_perigee_deg": 279.023,
      "mean_anomaly_deg": 67.7331,
      "mean_motion_rev_day": 1.00271906
    },
    {
      "epoch": "2026-04-02T21:57:21.504672Z",
      "apogee_km": 35789.539285583254,
      "perigee_km": 35783.57382473908,
      "latitude_deg": 0.013943085526727317,
      "longitude_deg": 67.94795348762119,
      "height_km": 35786.382070161446,
      "semi_major_axis_km": 42164.69355516117,
      "eccentricity": 7.074e-05,
      "inclination_deg": 0.0122,
      "raan_deg": 209.6912,
      "arg_perigee_deg": 282.0926,
      "mean_anomaly_deg": 96.7411,
      "mean_motion_rev_day": 1.00271922
    },
    {
      "epoch": "2026-04-03T19:59:43.473120Z",
      "apogee_km": 35789.79495920708,
      "perigee_km": 35783.20041034238,
      "latitude_deg": -0.004910048998417774,
      "longitude_deg": 67.94718873694447,
      "height_km": 35784.9625426434,
      "semi_major_axis_km": 42164.63468477473,
      "eccentricity": 7.82e-05,
      "inclination_deg": 0.0043,
      "raan_deg": 209.926,
      "arg_perigee_deg": 278.1013,
      "mean_anomaly_deg": 71.9954,
      "mean_motion_rev_day": 1.00272132
    },
    {
      "epoch": "2026-04-04T19:57:14.966208Z",
      "apogee_km": 35790.04922371438,
      "perigee_km": 35782.830648142946,
      "latitude_deg": 6.645491731090749e-05,
      "longitude_deg": 67.9481192196307,
      "height_km": 35784.98428259336,
      "semi_major_axis_km": 42164.576935928664,
      "eccentricity": 8.56e-05,
      "inclination_deg": 0.0034,
      "raan_deg": 188.0762,
      "arg_perigee_deg": 297.4146,
      "mean_anomaly_deg": 74.8991,
      "mean_motion_rev_day": 1.00272338
    },
    {
      "epoch": "2026-04-05T14:46:30.659232Z",
      "apogee_km": 35790.23795361632,
      "perigee_km": 35782.555575564416,
      "latitude_deg": -0.029481829947209385,
      "longitude_deg": 67.93915596563706,
      "height_km": 35782.06612946348,
      "semi_major_axis_km": 42164.53376459037,
      "eccentricity": 9.11e-05,
      "inclination_deg": 0.0065,
      "raan_deg": 217.4779,
      "arg_perigee_deg": 266.8923,
      "mean_anomaly_deg": 359.1099,
      "mean_motion_rev_day": 1.00272492
    },
    {
      "epoch": "2026-04-05T18:12:12.308256Z",
      "apogee_km": 35790.28238316258,
      "perigee_km": 35782.498811368125,
      "latitude_deg": -0.013455448138231593,
      "longitude_deg": 67.94790165288332,
      "height_km": 35783.43511264471,
      "semi_major_axis_km": 42164.527597265354,
      "eccentricity": 9.23e-05,
      "inclination_deg": 0.0036,
      "raan_deg": 199.0282,
      "arg_perigee_deg": 285.0485,
      "mean_anomaly_deg": 50.9683,
      "mean_motion_rev_day": 1.00272514
    },
    {
      "epoch": "2026-04-06T04:28:16.343328Z",
      "apogee_km": 35790.34089483241,
      "perigee_km": 35782.40722043181,
      "latitude_deg": 0.030866317014195076,
      "longitude_deg": 67.93597045203747,
      "height_km": 35789.416339596166,
      "semi_major_axis_km": 42164.51105763211,
      "eccentricity": 9.408e-05,
      "inclination_deg": 0.0203,
      "raan_deg": 190.4741,
      "arg_perigee_deg": 293.052,
      "mean_anomaly_deg": 205.9588,
      "mean_motion_rev_day": 1.00272573
    },
    {
      "epoch": "2026-04-07T14:41:48.527808Z",
      "apogee_km": 35790.64127392414,
      "perigee_km": 35781.97900990331,
      "latitude_deg": -0.0320083999238486,
      "longitude_deg": 67.94463110505237,
      "height_km": 35781.49135936507,
      "semi_major_axis_km": 42164.44714191373,
      "eccentricity": 0.00010272,
      "inclination_deg": 0.0172,
      "raan_deg": 183.6116,
      "arg_perigee_deg": 299.2923,
      "mean_anomaly_deg": 1.3755,
      "mean_motion_rev_day": 1.00272801
    },
    {
      "epoch": "2026-04-07T19:10:26.832288Z",
      "apogee_km": 35790.69301256519,
      "perigee_km": 35781.914376012646,
      "latitude_deg": -0.0011640490177323001,
      "longitude_deg": 67.95626136643695,
      "height_km": 35784.207456483324,
      "semi_major_axis_km": 42164.440694288925,
      "eccentricity": 0.0001041,
      "inclination_deg": 0.0167,
      "raan_deg": 179.0623,
      "arg_perigee_deg": 303.7436,
      "mean_anomaly_deg": 68.8179,
      "mean_motion_rev_day": 1.00272824
    },
    {
      "epoch": "2026-04-08T12:56:45.856032Z",
      "apogee_km": 35790.78246513097,
      "perigee_km": 35781.77614580813,
      "latitude_deg": -0.0209365929192454,
      "longitude_deg": 67.94298090858949,
      "height_km": 35781.67346587529,
      "semi_major_axis_km": 42164.41630546955,
      "eccentricity": 0.0001068,
      "inclination_deg": 0.0095,
      "raan_deg": 164.1029,
      "arg_perigee_deg": 318.7217,
      "mean_anomaly_deg": 336.1114,
      "mean_motion_rev_day": 1.00272911
    },
    {
      "epoch": "2026-04-09T21:24:22.553280Z",
      "apogee_km": 35790.961606291574,
      "perigee_km": 35781.53364988873,
      "latitude_deg": 0.015419596916291809,
      "longitude_deg": 67.96585113384975,
      "height_km": 35786.842584639155,
      "semi_major_axis_km": 42164.384628090156,
      "eccentricity": 0.0001118,
      "inclination_deg": 0.0142,
      "raan_deg": 140.6717,
      "arg_perigee_deg": 342.7781,
      "mean_anomaly_deg": 103.7284,
      "mean_motion_rev_day": 1.00273024
    },
    {
      "epoch": "2026-04-10T04:18:23.350752Z",
      "apogee_km": 35791.002662435465,
      "perigee_km": 35781.48025920387,
      "latitude_deg": 0.007660565448593294,
      "longitude_deg": 67.94876940417618,
      "height_km": 35789.93390800931,
      "semi_major_axis_km": 42164.378460819666,
      "eccentricity": 0.00011292,
      "inclination_deg": 0.015,
      "raan_deg": 137.6979,
      "arg_perigee_deg": 345.5046,
      "mean_anomaly_deg": 207.7639,
      "mean_motion_rev_day": 1.00273046
    },
    {
      "epoch": "2026-04-11T20:32:38.551200Z",
      "apogee_km": 35791.06623116827,
      "perigee_km": 35781.385293478044,
      "latitude_deg": 0.019062164420106196,
      "longitude_deg": 67.97419667833232,
      "height_km": 35785.75148942986,
      "semi_major_axis_km": 42164.36276232316,
      "eccentricity": 0.0001148,
      "inclination_deg": 0.0229,
      "raan_deg": 119.2387,
      "arg_perigee_deg": 6.3629,
      "mean_anomaly_deg": 90.5888,
      "mean_motion_rev_day": 1.00273102
    }
  ]
}